DMSP 5D-3 F16 (USA 172) 
1 28054U 03048A   26171.42689955 -.00000038  00000+0  37443-5 0  9996
2 28054  98.9889 195.2768 0007887 132.0538 331.9039 14.14483136169944
METEOSAT-9 (MSG-2)      
1 28912U 05049B   26170.92883707  .00000115  00000+0  00000+0 0  9995
2 28912   9.3683  54.1432 0001774 346.4633 247.5699  1.00273646  7020
DMSP 5D-3 F17 (USA 191) 
1 29522U 06050A   26171.42241591 -.00000013  00000+0  15609-4 0  9995
2 29522  98.7378 177.9264 0011060  51.0273 309.1884 14.14993196 12885
FENGYUN 3A              
1 32958U 08026A   26171.43054098  .00000055  00000+0  46755-4 0  9993
2 32958  98.6883 112.2031 0009703 115.2254 244.9929 14.19571712935868
GOES 14                 
1 35491U 09033A   26171.34840896 -.00000308  00000+0  00000+0 0  9996
2 35491   1.6993  83.0080 0001921  13.0479  77.9267  1.00110067  6626
DMSP 5D-3 F18 (USA 210) 
1 35951U 09057A   26171.39400846  .00000210  00000+0  13184-3 0  9997
2 35951  98.9038 152.1561 0009964 239.2588 120.7604 14.14898526860044
EWS-G2 (GOES 15)        
1 36411U 10008A   26171.11943681  .00000015  00000+0  00000+0 0  9998
2 36411   1.2866  82.8036 0004924  42.0631 250.1257  1.00266729 59663
COMS 1                  
1 36744U 10032A   26171.12316773  .00000087  00000+0  00000+0 0  9990
2 36744   4.8136  75.3217 0011650  12.3209 286.7612  0.99163259 51117
FENGYUN 3B              
1 37214U 10059A   26171.57572697  .00000477  00000+0  26973-3 0  9994
2 37214  98.9612 217.6053 0022131 174.4827 342.8166 14.14843402807905
SUOMI NPP               
1 37849U 11061A   26171.44192975  .00000061  00000+0  50150-4 0  9999
2 37849  98.7953 112.2958 0001348 359.0198   1.0975 14.19517985758904
METEOSAT-10 (MSG-3)     
1 38552U 12035B   26171.03561044 -.00000013  00000+0  00000+0 0  9997
2 38552   4.6793  61.0121 0001484   2.4454 217.8971  1.00266543 50884
METOP-B                 
1 38771U 12049A   26171.42762080  .00000060  00000+0  47478-4 0  9997
2 38771  98.6503 222.8621 0002032  10.6441 349.4779 14.21440128713725
INSAT-3D                
1 39216U 13038B   26171.27504292 -.00000345  00000+0  00000+0 0  9995
2 39216   1.9351  82.5055 0000638 326.5441  87.9271  1.00267986 47115
FENGYUN 3C              
1 39260U 13052A   26171.50681463  .00000037  00000+0  39977-4 0  9999
2 39260  98.4987 145.2292 0015049  18.5064 341.6655 14.15755678659037
METEOR-M 2              
1 40069U 14037A   26171.52432369 -.00000138  00000+0 -44026-4 0  9998
2 40069  98.5120 147.1448 0006635  36.0412 324.1212 14.21461633619799
HIMAWARI-8              
1 40267U 14060A   26171.46088416 -.00000280  00000+0  00000+0 0  9993
2 40267   0.0187  51.4118 0001168  42.2924 121.5465  1.00270806 42796
FENGYUN 2G              
1 40367U 14090A   26170.77009894 -.00000310  00000+0  00000+0 0  9997
2 40367   5.6465  72.7874 0003825 158.5034  53.6178  1.00270908 42022
METEOSAT-11 (MSG-4)     
1 40732U 15034A   26171.32244802  .00000057  00000+0  00000+0 0  9991
2 40732   3.2087  71.0883 0002400 346.3671 336.7454  1.00264042  7245
ELEKTRO-L 2             
1 41105U 15074A   26169.03651196 -.00000126  00000+0  00000+0 0  9991
2 41105   6.6975  70.5132 0000902 256.1704 298.2263  1.00270556 38515
SENTINEL-3A             
1 41335U 16011A   26171.44253080  .00000048  00000+0  37722-4 0  9994
2 41335  98.6248 238.7795 0001418  99.3701 260.7640 14.26733412538520
INSAT-3DR               
1 41752U 16054A   26171.40667204 -.00000081  00000+0  00000+0 0  9999
2 41752   0.1148  86.2468 0010425 187.4441 215.2920  1.00271300 35856
HIMAWARI-9              
1 41836U 16064A   26171.46088412  .00000000  00000+0  00000+0 0  9997
2 41836   0.0140 351.6731 0000932 111.3358 112.3453  1.00270283 35247
GOES 16                 
1 41866U 16071A   26171.35461541 -.00000095  00000+0  00000+0 0  9999
2 41866   0.3504  85.5238 0000306 339.5740 226.4328  1.00271436 35133
FENGYUN 4A              
1 41882U 16077A   26171.48778220 -.00000362  00000+0  00000+0 0  9999
2 41882   2.3321  80.2491 0008619 153.5958 334.1664  1.00266923 34968
CYGFM05                 
1 41884U 16078A   26171.32171544  .00019452  00000+0  26251-3 0  9990
2 41884  34.9559 239.8312 0007362 181.9302 178.1395 15.56789762529244
CYGFM04                 
1 41885U 16078B   26171.41040240  .00025123  00000+0  28119-3 0  9996
2 41885  34.9311 206.7708 0007079 223.5840 136.4326 15.61665288529500
CYGFM02                 
1 41886U 16078C   26171.40489205  .00028987  00000+0  28782-3 0  9991
2 41886  34.9392 201.2489 0008091 224.9077 135.0995 15.64678561529674
CYGFM01                 
1 41887U 16078D   26171.30905894  .00020338  00000+0  26751-3 0  9994
2 41887  34.9389 240.9472 0007062 175.8238 184.2546 15.57471223529196
CYGFM08                 
1 41888U 16078E   26171.45513382  .00022398  00000+0  26567-3 0  9991
2 41888  34.9419 219.4708 0008738 207.6434 152.3827 15.60162461529482
CYGFM07                 
1 41890U 16078G   26171.41407463  .00022736  00000+0  26880-3 0  9996
2 41890  34.9433 208.0826 0007489 222.6573 137.3571 15.60258013529500
CYGFM03                 
1 41891U 16078H   26171.44907869  .00021797  00000+0  25786-3 0  9995
2 41891  34.9390 209.7861 0006918 211.7965 148.2343 15.60252937529484
